0 NAVSTAR 48 (USA 151)
1 26407U 00040A   18093.52153440 -.00000079  00000-0  00000+0 0  9994
2 26407  56.5163 333.8131 0198107 272.7976 243.1186  2.00563764129847
0 COSMOS 2375 (GLONASS)
1 26564U 00063A   18092.17716457 -.00000043 +00000-0 +00000-0 0  9998
2 26564 065.3362 055.0735 0006095 026.8757 333.1302 02.13102003135893
0 COSMOS 2376 (GLONASS)
1 26565U 00063B   18092.90935897 -.00000040 +00000-0 +00000-0 0  9998
2 26565 065.3401 055.0673 0003458 021.6663 235.0130 02.13103156135943
0 COSMOS 2374 (GLONASS)
1 26566U 00063C   18092.54700583 -.00000042 +00000-0 +00000-0 0  9993
2 26566 065.3222 054.8820 0066051 218.6785 323.6197 02.13099833135883
0 NAVSTAR 49 (USA 154)
1 26605U 00071A   18093.47599590 -.00000004  00000-0  00000+0 0  9990
2 26605  55.0715 213.3194 0097725 248.3161 139.0099  2.00554562127439
0 NAVSTAR 50 (USA 156)
1 26690U 01004A   18093.49558076  .00000002  00000-0  00000+0 0  9994
2 26690  53.0957 145.6930 0190149 260.6391 260.2423  2.00564185125832
0 COSMOS 2382 (GLONASS)
1 26987U 01053A   18092.80788997 +.00000020 +00000-0 +00000-0 0  9999
2 26987 062.9539 164.7697 0005993 195.3202 124.0452 02.13105414127072
0 COSMOS 2381 (GLONASS)
1 26988U 01053B   18092.40138091 +.00000023 +00000-0 +00000-0 0  9993
2 26988 062.9576 164.8008 0038801 214.5168 248.6737 02.13105433127148
0 COSMOS 2380 (GLONASS)
1 26989U 01053C   18092.83445824  .00000020  00000-0  00000+0 0  9992
2 26989  62.9499 164.7591 0004201  24.2434 249.7798  2.13103289127133
0 COSMOS 2394 (GLONASS)
1 27617U 02060A   18092.47599161 -.00000040 +00000-0 +00000-0 0  9998
2 27617 065.5065 056.1690 0003622 016.3193 343.6672 02.13102164118848
0 COSMOS 2396 (GLONASS)
1 27618U 02060B   18093.17986983 -.00000037  00000-0  00000+0 0  9994
2 27618  65.5097  56.1300 0008814 154.4911  94.9304  2.13100380118871
0 COSMOS 2395 (GLONASS)
1 27619U 02060C   18093.48996616 -.00000035  00000-0  00000+0 0  9991
2 27619  65.5182  56.2240 0010920 276.8726 198.5676  2.13103938118869
0 NAVSTAR 51 (USA 166)
1 27663U 03005A   18093.35814887 -.00000078  00000-0  00000+0 0  9992
2 27663  56.5817 333.5739 0098990  27.0431 129.0245  2.00571630111205
0 NAVSTAR 52 (USA 168)
1 27704U 03010A   18093.30213875 -.00000026  00000-0  00000+0 0  9992
2 27704  54.0469  86.1875 0247012 269.7920 167.3688  2.00556285109996
0 COSMOS 2404 (GLONASS)
1 28112U 03056A   18092.56084830 +.00000020 +00000-0 +00000-0 0  9994
2 28112 063.2236 168.3948 0036504 080.8222 177.6085 02.13088131111348
0 COSMOS 2402 (GLONASS)
1 28113U 03056B   18092.56594816  .00000020  00000-0  00000+0 0  9994
2 28113  63.2419 168.4571 0035048  78.2765 192.1670  2.13105105111387
0 COSMOS 2403 (GLONASS)
1 28114U 03056C   18092.46701896  .00000021  00000-0  00000+0 0  9993
2 28114  63.2466 168.4983 0040672  59.5577  44.2700  2.13104886111385
0 NAVSTAR 53 (USA 175)
1 28129U 03058A   18092.93161684  .00000007  00000-0  00000+0 0  9992
2 28129  52.9902 145.6747 0076476 269.3655  89.8363  2.00577284104682
0 NAVSTAR 54 (USA 177)
1 28190U 04009A   18093.14757450 -.00000084  00000-0  00000+0 0  9999
2 28190  56.1443  34.4605 0095914  65.1753  89.0244  2.00560059102863
0 NAVSTAR 55 (USA 178)
1 28361U 04023A   18093.52641981 -.00000005  00000-0  00000+0 0  9991
2 28361  54.0686 208.1339 0123755 224.4724 119.6713  2.00575377100954
0 NAVSTAR 56 (USA 180)
1 28474U 04045A   18093.26894854 -.00000025  00000-0  00000+0 0  9992
2 28474  54.4179  85.7733 0180978 252.8721 265.9211  2.00559259 98314
0 COSMOS 2413 (GLONASS)
1 28508U 04053A   18092.26111378 +.00000023 +00000-0 +00000-0 0  9999
2 28508 063.1411 166.8919 0008797 191.9784 236.8167 02.13103864103242
0 COSMOS 2411 (GLONASS)
1 28509U 04053B   18092.49491286  .00000021  00000-0  00000+0 0  9991
2 28509  63.1362 166.8427 0004610 180.3078  78.8545  2.13102125103232
0 COSMOS 2412 (GLONASS)
1 28510U 04053C   18092.49229326 +.00000021 +00000-0 +00000-0 0  9998
2 28510 063.1475 166.9343 0008463 251.9764 027.2180 02.13103362103231
0 NAVSTAR 57 (USA 183)
1 28874U 05038A   18093.25173341 -.00000086  00000-0  00000+0 0  9996
2 28874  56.2887  31.7575 0125347 258.1363 349.6273  2.00550998 91726
0 COSMOS 2419 (GLONASS)
1 28915U 05050A   18092.78082641 -.00000039 +00000-0 +00000-0 0  9994
2 28915 065.6395 056.1069 0018355 346.1488 145.5474 02.13106661095509
0 COSMOS 2418 (GLONASS)
1 28916U 05050B   18092.56767842 -.00000040 +00000-0 +00000-0 0  9996
2 28916 065.6571 056.2158 0014883 321.8117 038.0578 02.13104716095473
0 COSMOS 2417 (GLONASS)
1 28917U 05050C   18092.53285331 -.00000040 +00000-0 +00000-0 0  9992
2 28917 065.6417 056.1367 0015453 109.3859 311.7010 02.13104153095354
0 NAVSTAR 58 (USA 190)
1 29486U 06042A   18093.47761042 -.00000018  00000-0  00000+0 0  9992
2 29486  55.2237 270.6597 0088256 350.7512 346.8349  2.00568152 84438
0 NAVSTAR 59 (USA 192)
1 29601U 06052A   18092.95632830 -.00000076  00000-0  00000+0 0  9990
2 29601  56.5570 332.5070 0069447  53.2737 307.4097  2.00570596 83347
0 COSMOS 2425 (GLONASS)
1 29670U 06062A   18092.63969851 -.00000014  00000-0  10000-3 0  9995
2 29670  65.3163 295.0902 0022270 351.4201  82.5138  2.13104877 87708
0 COSMOS 2426 (GLONASS)
1 29671U 06062B   18092.94657368 -.00000014 +00000-0 +10000-3 0  9997
2 29671 065.3329 295.1754 0016925 157.8110 007.8485 02.13102961087714
0 COSMOS 2424 (GLONASS)
1 29672U 06062C   18093.46755000 -.00000013  00000-0  10000-3 0  9997
2 29672  65.3189 295.0735 0017056 164.8640 213.3679  2.13099650 87729
0 NAVSTAR 60 (USA 196)
1 32260U 07047A   18093.27077600 -.00000007  00000-0  00000+0 0  9998
2 32260  53.1928 204.2336 0100605  37.5952 323.1038  2.00558271 76739
0 COSMOS 2433 (GLONASS)
1 32275U 07052A   18092.64344359 -.00000040 +00000-0 +10000-3 0  9990
2 32275 065.6543 055.8948 0004972 286.9979 341.4027 02.13104557081212
0 COSMOS 2432 (GLONASS)
1 32276U 07052B   18092.56937097 -.00000040  00000-0  10000-3 0  9999
2 32276  65.6669  55.9731 0013724 329.4265 194.2666  2.13103957 81215
0 COSMOS 2431 (GLONASS)
1 32277U 07052C   18092.52039112 -.00000040 +00000-0 +00000-0 0  9993
2 32277 065.6695 055.8784 0014124 183.6781 004.3790 02.13208786081305
0 NAVSTAR 61 (USA 199)
1 32384U 07062A   18093.36949719 -.00000085  00000-0  00000+0 0  9997
2 32384  56.3606  32.3558 0004836  33.7477 171.8284  2.00559166 75463
0 COSMOS 2434 (GLONASS)
1 32393U 07065A   18093.41353863 -.00000013  00000-0  00000+0 0  9996
2 32393  64.9318 294.0731 0005628  91.5725 295.8898  2.13102828 79944
0 COSMOS 2435 (GLONASS)
1 32394U 07065B   18092.41742872 -.00000014  00000-0  00000+0 0  9999
2 32394  64.9360 294.1033 0023725 355.2147   4.7832  2.13115160 79852
0 COSMOS 2436 (GLONASS)
1 32395U 07065C   18093.44246801 -.00000013  00000-0  10000-3 0  9999
2 32395  64.9426 294.1216 0016453   6.5881  93.1953  2.13104256 79872
0 NAVSTAR 62 (USA 201)
1 32711U 08012A   18092.68550624 -.00000024  00000-0  00000+0 0  9997
2 32711  54.9567 269.9888 0114705 215.3095 143.8964  2.00563032 73630
0 COSMOS 2442 (GLONASS)
1 33378U 08046A   18093.30199733 -.00000038  00000-0  00000+0 0  9999
2 33378  65.5769  55.1553 0022064 326.1342 164.5828  2.13110291 74075
0 COSMOS 2443 (GLONASS)
1 33379U 08046B   18092.77300318 -.00000040  00000-0  00000+0 0  9996
2 33379  65.5844  55.2473 0011083 185.4743  77.6967  2.13099813 74076
0 COSMOS 2444 (GLONASS)
1 33380U 08046C   18092.29960781 -.00000042 +00000-0 +00000-0 0  9994
2 33380 065.5914 055.2977 0022607 310.2071 340.4962 02.13113213074056
0 COSMOS 2447 (GLONASS)
1 33466U 08067A   18092.72477444 +.00000018 +00000-0 +00000-0 0  9991
2 33466 063.9528 172.9327 0007388 258.1637 105.0674 02.13107942072096
0 COSMOS 2449 (GLONASS)
1 33467U 08067B   18093.13646766  .00000016  00000-0  00000+0 0  9990
2 33467  63.9404 172.8655 0026015 239.7288 120.0743  2.13097683 72160
0 COSMOS 2448 (GLONASS)
1 33468U 08067C   18092.19192964 +.00000020 +00000-0 +00000-0 0  9998
2 33468 063.9469 172.9108 0005708 292.6947 067.3043 02.13116367072147
0 NAVSTAR 63 (USA 203)
1 34661U 09014A   18093.29697399 -.00000076  00000-0  00000+0 0  9992
2 34661  56.1270 330.5227 0095839  51.2476 101.2804  2.00564030 66181
0 NAVSTAR 64 (USA 206)
1 35752U 09043A   18093.28631733  .00000007  00000-0  00000+0 0  9998
2 35752  54.3005 147.7492 0051612  32.9231  71.7044  2.00563376 63239
0 COSMOS 2456 (GLONASS)
1 36111U 09070A   18092.69012234  .00000018  00000-0  00000+0 0  9993
2 36111  64.1831 173.6822 0004649 313.4283  51.1036  2.13102830 64593
0 COSMOS 2457 (GLONASS)
1 36112U 09070B   18093.44755183  .00000014  00000-0  00000+0 0  9991
2 36112  64.1658 173.5680 0005885 172.9189 179.9344  2.13101513 64608
0 COSMOS 2458 (GLONASS)
1 36113U 09070C   18093.42809428  .00000014  00000-0  10000-3 0  9997
2 36113  64.1701 173.5789 0001735 356.6416  29.6239  2.13102143 64617
0 COSMOS 2459 (GLONASS)
1 36400U 10007A   18093.43119707 -.00000037  00000-0  10000-3 0  9999
2 36400  65.5630  54.9381 0029047 348.3408  23.9336  2.13102170 62968
0 COSMOS 2461 (GLONASS)
1 36401U 10007B   18092.67761889 -.00000041  00000-0  10000-3 0  9994
2 36401  65.5560  54.9410 0005982  41.4666  23.2786  2.13102185 62949
0 COSMOS 2460 (GLONASS)
1 36402U 10007C   18092.61367990 -.00000041  00000-0  10000-3 0  9994
2 36402  65.5449  54.9107 0002787 314.7296 101.7603  2.13101629 62946
0 NAVSTAR 65 (USA 213)
1 36585U 10022A   18093.45690214 -.00000076  00000-0  00000+0 0  9997
2 36585  55.8508 329.1017 0072305  46.6143 282.7469  2.00564931 57486
0 COSMOS 2466 (GLONASS)
1 37137U 10041A   18092.58768576 -.00000015  00000-0  00000+0 0  9995
2 37137  64.5117 293.8540 0017235 155.0683 205.9118  2.13110942 59029
0 COSMOS 2465 (GLONASS)
1 37138U 10041B   18093.11866543 -.00000014  00000-0  00000+0 0  9998
2 37138  64.5288 293.9246 0035557 168.9310  32.1473  2.13097384 59028
